{
    "links": {
        "self": "http://www.neowsapp.com/rest/v1/neo/3653693?api_key=iIulBulltgU6a56xZRHN4H3l9WmuAYTsLGpBGhQ2"
    },
    "id": "3653693",
    "neo_reference_id": "3653693",
    "name": "(2013 VN13)",
    "designation": "2013 VN13",
    "nasa_jpl_url": "http://ssd.jpl.nasa.gov/sbdb.cgi?sstr=3653693",
    "absolute_magnitude_h": 24.1,
    "estimated_diameter": {
        "kilometers": {
            "estimated_diameter_min": 0.040230458,
            "estimated_diameter_max": 0.0899580388
        },
        "meters": {
            "estimated_diameter_min": 40.2304579834,
            "estimated_diameter_max": 89.9580388169
        },
        "miles": {
            "estimated_diameter_min": 0.0249980399,
            "estimated_diameter_max": 0.0558973165
        },
        "feet": {
            "estimated_diameter_min": 131.9896957704,
            "estimated_diameter_max": 295.1379320721
        }
    },
    "is_potentially_hazardous_asteroid": false,
    "close_approach_data": [
        {
            "close_approach_date": "1908-11-30",
            "close_approach_date_full": "1908-Nov-30 21:47",
            "epoch_date_close_approach": -1927678380000,
            "relative_velocity": {
                "kilometers_per_second": "11.5950588575",
                "kilometers_per_hour": "41742.211886914",
                "miles_per_hour": "25936.9871582883"
            },
            "miss_distance": {
                "astronomical": "0.2203908623",
                "lunar": "85.7320454347",
                "kilometers": "32970003.567543301",
                "miles": "20486610.2401315138"
            },
            "orbiting_body": "Earth"
        },
        {
            "close_approach_date": "1909-05-12",
            "close_approach_date_full": "1909-May-12 11:48",
            "epoch_date_close_approach": -1913631120000,
            "relative_velocity": {
                "kilometers_per_second": "9.2374683641",
                "kilometers_per_hour": "33254.8861108951",
                "miles_per_hour": "20663.2929837393"
            },
            "miss_distance": {
                "astronomical": "0.1266299192",
                "lunar": "49.2590385688",
                "kilometers": "18943566.190592104",
                "miles": "11770986.2029508752"
            },
            "orbiting_body": "Earth"
        },
        {
            "close_approach_date": "2013-11-23",
            "close_approach_date_full": "2013-Nov-23 03:16",
            "epoch_date_close_approach": 1385176560000,
            "relative_velocity": {
                "kilometers_per_second": "9.5800813043",
                "kilometers_per_hour": "34488.2926954056",
                "miles_per_hour": "21429.6838695424"
            },
            "miss_distance": {
                "astronomical": "0.1384423505",
                "lunar": "53.8540743445",
                "kilometers": "20710680.752593435",
                "miles": "12869020.275262003"
            },
            "orbiting_body": "Earth"
        },
        {
            "close_approach_date": "2014-05-07",
            "close_approach_date_full": "2014-May-07 12:33",
            "epoch_date_close_approach": 1399465980000,
            "relative_velocity": {
                "kilometers_per_second": "11.2144296974",
                "kilometers_per_hour": "40371.9469106648",
                "miles_per_hour": "25085.5577901295"
            },
            "miss_distance": {
                "astronomical": "0.1826257566",
                "lunar": "71.0414193174",
                "kilometers": "27320424.194498442",
                "miles": "16976124.4011128196"
            },
            "orbiting_body": "Earth"
        }
    ],
    "orbital_data": {
        "orbit_id": "4",
        "orbit_determination_date": "2017-04-06 08:43:39",
        "first_observation_date": "2013-11-11",
        "last_observation_date": "2013-11-12",
        "data_arc_in_days": 1,
        "observations_used": 14,
        "orbit_uncertainty": "8",
        "minimum_orbit_intersection": ".107017",
        "jupiter_tisserand_invariant": "5.438",
        "epoch_osculation": "2456608.5",
        "eccentricity": ".116007638308879",
        "semi_major_axis": "1.142903677702437",
        "inclination": "18.1180360795672",
        "ascending_node_longitude": "235.0890639721327",
        "orbital_period": "446.2855981685077",
        "perihelion_distance": "1.010318121237645",
        "perihelion_argument": "271.6130311461943",
        "aphelion_distance": "1.275489234167229",
        "perihelion_time": "2456711.280774449389",
        "mean_anomaly": "277.0910310491148",
        "mean_motion": ".80665834048284",
        "equinox": "J2000",
        "orbit_class": {
            "orbit_class_type": "APO",
            "orbit_class_description": "Near-Earth asteroid orbits which cross the Earth’s orbit similar to that of 1862 Apollo",
            "orbit_class_range": "a (semi-major axis) > 1.0 AU; q (perihelion) < 1.017 AU"
        }
    },
    "is_sentry_object": false
}